OBJECT_NAME,OBJECT_ID,EPOCH,MEAN_MOTION,ECCENTRICITY,INCLINATION,RA_OF_ASC_NODE,ARG_OF_PERICENTER,MEAN_ANOMALY,EPHEMERIS_TYPE,CLASSIFICATION_TYPE,NORAD_CAT_ID,ELEMENT_SET_NO,REV_AT_EPOCH,BSTAR,MEAN_MOTION_DOT,MEAN_MOTION_DDOT
S-NET C,2018-014K,2026-07-16T07:21:42.297984,15.16883754,.0008049,97.5365,102.1976,265.5764,94.4549,0,U,43189,999,46172,.11698E-3,.2237E-4,0
ZHANGHENG 1-01 (CSES-1),2018-015C,2026-07-16T21:04:12.021888,15.20621553,.0016544,97.6894,4.1299,159.2432,200.9478,0,U,43194,999,46915,.19216E-3,.4155E-4,0
BEIDOU-3 M4,2018-018A,2026-07-14T01:10:47.817984,1.86230761,.0007449,56.6746,62.2635,28.5883,331.5267,0,U,43207,999,5724,0,-.38E-6,0
BEIDOU-3 M3,2018-018B,2026-07-16T06:19:24.989088,1.86230815,.000768,56.6762,62.1943,346.8655,13.1881,0,U,43208,999,5728,0,-.47E-6,0
PAZ,2018-020A,2026-07-16T19:31:35.813280,15.19146327,.0001706,97.4457,204.7786,87.9942,272.1488,0,U,43215,999,46550,.46838E-4,.917E-5,0
GOES 17,2018-022A,2026-07-16T19:44:23.350272,1.00270914,.0000571,1.0113,85.2320,74.7447,341.2705,0,U,43226,999,3072,0,-.193E-5,0
HISPASAT 30W-6,2018-023A,2026-07-16T09:45:29.001024,1.00271110,.000513,0.0421,50.5563,41.0762,318.9942,0,U,43228,999,3069,0,-.227E-5,0
PODSAT,2018-023B,2026-07-15T22:17:40.081632,8.61771478,.34572415,26.8522,49.6239,238.0202,83.7656,0,U,43229,999,19525,.42087454E-3,.50514E-3,-.1014679E-5
O3B FM15,2018-024A,2026-07-16T11:26:27.102048,5.00115777,.0002595,0.0529,359.5981,113.4831,246.9421,0,U,43231,999,15249,0,-.25E-6,0
O3B FM16,2018-024B,2026-07-16T17:29:38.200704,5.00115975,.0002613,0.0534,4.0123,108.7935,247.2177,0,U,43232,999,15242,0,-.25E-6,0
O3B FM14,2018-024C,2026-07-15T13:41:21.642432,5.00115728,.00028708,0.0522,5.1971,107.5775,247.2518,0,U,43233,999,15236,0,-.24E-6,0
O3B FM13,2018-024D,2026-07-15T05:40:32.456064,5.00115602,.000193,0.0539,323.2184,92.4344,304.3616,0,U,43234,999,15246,0,-.24E-6,0
LKW-4,2018-025A,2026-07-16T12:29:38.200992,15.64607766,.0003384,97.6353,10.7486,180.7875,179.3379,0,U,43236,999,46461,.32678E-3,.315E-3,0
BEIDOU-3 M9,2018-029A,2026-07-15T09:46:53.785344,1.86227874,.0001237,54.1665,298.9609,187.3029,172.7315,0,U,43245,999,5642,0,-.67E-6,0
BEIDOU-3 M10,2018-029B,2026-07-14T19:18:56.289024,1.86229073,.0003232,54.1648,299.0090,37.5327,322.5240,0,U,43246,999,5639,0,-.65E-6,0
IRIDIUM 144,2018-030A,2026-07-16T06:06:11.405952,14.34218065,.0002392,86.3956,278.2475,96.4668,263.6800,0,U,43249,999,43430,.17699E-4,.69E-6,0
IRIDIUM 149,2018-030B,2026-07-16T14:37:39.421056,14.34218095,.0002251,86.3956,278.0656,93.3087,266.8366,0,U,43250,999,43437,.238E-4,.86E-6,0
IRIDIUM 157,2018-030C,2026-07-16T15:05:03.594912,14.34218381,.0002266,86.3959,278.1117,94.1885,265.9570,0,U,43251,999,43435,.43287E-4,.141E-5,0
IRIDIUM 140,2018-030D,2026-07-16T15:32:27.641760,14.34217991,.0002245,86.3957,278.1162,95.8058,264.3394,0,U,43252,999,43441,.44286E-4,.144E-5,0
IRIDIUM 145,2018-030E,2026-07-16T15:14:11.420160,14.34217566,.0002537,86.3955,278.0936,99.4157,260.7326,0,U,43253,999,43434,.30541E-4,.105E-5,0
IRIDIUM 146,2018-030F,2026-07-16T14:46:47.452800,14.34217578,.0002389,86.3959,278.1138,96.0786,264.0682,0,U,43254,999,43435,.15277E-4,.63E-6,0
IRIDIUM 148,2018-030G,2026-07-16T15:41:35.655360,14.34218363,.000234,86.3959,278.1412,93.1971,266.9493,0,U,43255,999,43439,.43774E-4,.142E-5,0
IRIDIUM 142,2018-030H,2026-07-16T14:55:55.456896,14.34218016,.0002461,86.3954,278.0424,96.4639,263.6837,0,U,43256,999,43435,.1868E-4,.72E-6,0
IRIDIUM 150,2018-030J,2026-07-16T15:50:43.336320,14.34216501,.000219,86.3958,278.1436,96.1057,264.0388,0,U,43257,999,43438,-.68643E-4,-.172E-5,0
IRIDIUM 143,2018-030K,2026-07-16T15:23:19.529664,14.34217766,.0002336,86.3962,278.2456,96.8392,263.3069,0,U,43258,999,43431,.24062E-4,.87E-6,0
GAOFEN-1 02,2018-031A,2026-07-16T20:19:05.833920,14.76471223,.0001478,98.0514,260.2883,276.8076,83.2966,0,U,43259,999,44707,-.22108E-4,-.205E-5,0
GAOFEN-1 03,2018-031B,2026-07-16T19:47:34.345248,14.76463729,.0002287,98.0503,260.1216,11.2596,348.8664,0,U,43260,999,44706,.50858E-4,.302E-5,0
GAOFEN-1 04,2018-031D,2026-07-16T20:50:09.640896,14.76471853,.0001195,98.0515,260.3594,55.7150,304.4173,0,U,43262,999,44706,.52839E-4,.316E-5,0
SUPERBIRD-B3,2018-033A,2026-07-16T19:13:26.317056,1.00270907,.0001089,0.0184,36.7685,92.0647,256.1541,0,U,43271,999,3035,0,-.103E-5,0
HYLAS 4,2018-033B,2026-07-16T20:25:38.554752,1.00270570,.0000663,0.0281,279.6850,227.8651,60.0393,0,U,43272,999,3036,0,-.244E-5,0
YAOGAN-31 01A,2018-034A,2026-07-16T20:48:23.010336,13.45463295,.0277723,63.3953,14.9093,7.6030,352.9076,0,U,43275,999,40609,-.12376E-3,-.183E-5,0
