S-NET C                 
1 43189U 18014K   26197.30673956  .00002237  00000+0  11698-3 0  9994
2 43189  97.5365 102.1976 0008049 265.5764  94.4549 15.16883754461727
ZHANGHENG 1-01 (CSES-1) 
1 43194U 18015C   26197.87791692  .00004155  00000+0  19216-3 0  9996
2 43194  97.6894   4.1299 0016544 159.2432 200.9478 15.20621553469152
BEIDOU-3 M4             
1 43207U 18018A   26195.04916456 -.00000038  00000+0  00000+0 0  9992
2 43207  56.6746  62.2635 0007449  28.5883 331.5267  1.86230761 57243
BEIDOU-3 M3             
1 43208U 18018B   26197.26348367 -.00000047  00000+0  00000+0 0  9999
2 43208  56.6762  62.1943 0007680 346.8655  13.1881  1.86230815 57282
PAZ                     
1 43215U 18020A   26197.81360895  .00000917  00000+0  46838-4 0  9990
2 43215  97.4457 204.7786 0001706  87.9942 272.1488 15.19146327465501
GOES 17                 
1 43226U 18022A   26197.82249248 -.00000193  00000+0  00000+0 0  9996
2 43226   1.0113  85.2320 0000571  74.7447 341.2705  1.00270914 30729
HISPASAT 30W-6          
1 43228U 18023A   26197.40658566 -.00000227  00000+0  00000+0 0  9998
2 43228   0.0421  50.5563 0005130  41.0762 318.9942  1.00271110 30698
PODSAT                  
1 43229U 18023B   26196.92893613  .00050514 -10147-5  42087-3 0  9997
2 43229  26.8522  49.6239 3457241 238.0202  83.7656  8.61771478195259
O3B FM15                
1 43231U 18024A   26197.47670257 -.00000025  00000+0  00000+0 0  9997
2 43231   0.0529 359.5981 0002595 113.4831 246.9421  5.00115777152495
O3B FM16                
1 43232U 18024B   26197.72891436 -.00000025  00000+0  00000+0 0  9990
2 43232   0.0534   4.0123 0002613 108.7935 247.2177  5.00115975152420
O3B FM14                
1 43233U 18024C   26196.57038938 -.00000024  00000+0  00000+0 0  9992
2 43233   0.0522   5.1971 0002870 107.5775 247.2518  5.00115728152363
O3B FM13                
1 43234U 18024D   26196.23648676 -.00000024  00000+0  00000+0 0  9992
2 43234   0.0539 323.2184 0001930  92.4344 304.3616  5.00115602152468
LKW-4                   
1 43236U 18025A   26197.52058103  .00031500  00000+0  32678-3 0  9990
2 43236  97.6353  10.7486 0003384 180.7875 179.3379 15.64607766464611
BEIDOU-3 M9             
1 43245U 18029A   26196.40756696 -.00000067  00000+0  00000+0 0  9997
2 43245  54.1665 298.9609 0001237 187.3029 172.7315  1.86227874 56421
BEIDOU-3 M10            
1 43246U 18029B   26195.80481816 -.00000065  00000+0  00000+0 0  9998
2 43246  54.1648 299.0090 0003232  37.5327 322.5240  1.86229073 56394
IRIDIUM 144             
1 43249U 18030A   26197.25429868  .00000069  00000+0  17699-4 0  9993
2 43249  86.3956 278.2475 0002392  96.4668 263.6800 14.34218065434304
IRIDIUM 149             
1 43250U 18030B   26197.60948404  .00000086  00000+0  23800-4 0  9996
2 43250  86.3956 278.0656 0002251  93.3087 266.8366 14.34218095434372
IRIDIUM 157             
1 43251U 18030C   26197.62851383  .00000141  00000+0  43287-4 0  9991
2 43251  86.3959 278.1117 0002266  94.1885 265.9570 14.34218381434353
IRIDIUM 140             
1 43252U 18030D   26197.64754215  .00000144  00000+0  44286-4 0  9993
2 43252  86.3957 278.1162 0002245  95.8058 264.3394 14.34217991434419
IRIDIUM 145             
1 43253U 18030E   26197.63485440  .00000105  00000+0  30541-4 0  9990
2 43253  86.3955 278.0936 0002537  99.4157 260.7326 14.34217566434345
IRIDIUM 146             
1 43254U 18030F   26197.61582700  .00000063  00000+0  15277-4 0  9998
2 43254  86.3959 278.1138 0002389  96.0786 264.0682 14.34217578434357
IRIDIUM 148             
1 43255U 18030G   26197.65388490  .00000142  00000+0  43774-4 0  9994
2 43255  86.3959 278.1412 0002340  93.1971 266.9493 14.34218363434392
IRIDIUM 142             
1 43256U 18030H   26197.62216964  .00000072  00000+0  18680-4 0  9998
2 43256  86.3954 278.0424 0002461  96.4639 263.6837 14.34218016434358
IRIDIUM 150             
1 43257U 18030J   26197.66022380 -.00000172  00000+0 -68643-4 0  9997
2 43257  86.3958 278.1436 0002190  96.1057 264.0388 14.34216501434383
IRIDIUM 143             
1 43258U 18030K   26197.64119826  .00000087  00000+0  24062-4 0  9998
2 43258  86.3962 278.2456 0002336  96.8392 263.3069 14.34217766434318
GAOFEN-1 02             
1 43259U 18031A   26197.84659530 -.00000205  00000+0 -22108-4 0  9996
2 43259  98.0514 260.2883 0001478 276.8076  83.2966 14.76471223447070
GAOFEN-1 03             
1 43260U 18031B   26197.82470307  .00000302  00000+0  50858-4 0  9998
2 43260  98.0503 260.1216 0002287  11.2596 348.8664 14.76463729447062
GAOFEN-1 04             
1 43262U 18031D   26197.86816714  .00000316  00000+0  52839-4 0  9996
2 43262  98.0515 260.3594 0001195  55.7150 304.4173 14.76471853447064
SUPERBIRD-B3            
1 43271U 18033A   26197.80099904 -.00000103  00000+0  00000+0 0  9999
2 43271   0.0184  36.7685 0001089  92.0647 256.1541  1.00270907 30354
HYLAS 4                 
1 43272U 18033B   26197.85114068 -.00000244  00000+0  00000+0 0  9990
2 43272   0.0281 279.6850 0000663 227.8651  60.0393  1.00270570 30369
YAOGAN-31 01A           
1 43275U 18034A   26197.86693299 -.00000183  00000+0 -12376-3 0  9999
2 43275  63.3953  14.9093 0277723   7.6030 352.9076 13.45463295406095
